NORAD_CAT_ID,OBJECT_NAME,OBJECT_TYPE,EPOCH,MEAN_MOTION,ECCENTRICITY,INCLINATION,RA_OF_ASC_NODE,ARG_OF_PERICENTER,MEAN_ANOMALY,BSTAR,MEAN_MOTION_DOT,MEAN_MOTION_DDOT,TLE_LINE0,TLE_LINE1,TLE_LINE2,SEMIMAJOR_AXIS,PERIOD,APOGEE,PERIGEE,DECAYED
52670.0,STARLINK-4075,PAYLOAD,2023-03-01 01:02:21,15.08813617,0.0001486,53.2156,73.0688,90.148,269.9683,-0.00024491,-4.181e-05,0.0,0 STARLINK-4075,1 52670U 22053Q   23060.04330783 -.00004181  00000-0 -24491-3 0  9990,2 52670  53.2156  73.0688 0001486  90.1480 269.9683 15.08813617 43849,6917.961,95.439,540.854,538.798,0.0
52670.0,STARLINK-4075,PAYLOAD,2023-03-01 12:10:04,15.0880758,0.0001189,53.2158,70.9868,101.2698,258.8428,-4.4804e-05,-1e-05,0.0,0 STARLINK-4075,1 52670U 22053Q   23060.50699905 -.00001000  00000-0 -44804-4 0  9993,2 52670  53.2158  70.9868 0001189 101.2698 258.8428 15.08807580 44355,6917.979,95.44,540.667,539.022,0.0
52670.0,STARLINK-4075,PAYLOAD,2023-03-02 00:53:11,15.08796351,0.0001863,53.2162,68.6081,127.5766,232.5396,0.0006312,9.76e-05,0.0,0 STARLINK-4075,1 52670U 22053Q   23061.03693968  .00009760  00000-0  63120-3 0  9995,2 52670  53.2162  68.6081 0001863 127.5766 232.5396 15.08796351 43992,6918.014,95.44,541.168,538.59,0.0
52670.0,STARLINK-4075,PAYLOAD,2023-03-02 16:47:28,15.08097217,0.0001489,53.216,65.6362,105.6159,254.4997,-0.0092989,-0.00142447,0.0,0 STARLINK-4075,1 52670U 22053Q   23061.69963305 -.00142447  00000-0 -92989-2 0  9998,2 52670  53.2160  65.6362 0001489 105.6159 254.4997 15.08097217 44105,6920.152,95.485,543.047,540.986,0.0
52670.0,STARLINK-4075,PAYLOAD,2023-03-03 10:00:00,15.07175675,0.000148,53.2157,62.425,87.4733,206.3438,0.0024969,0.00037898,0.0,0 STARLINK-4075,1 52670U 22053Q   23062.41667824  .00037898  00000-0  24969-2 0  9990,2 52670  53.2157  62.4250 0001480  87.4733 206.3438 15.07175675 44209,6922.972,95.543,545.862,543.813,0.0
52670.0,STARLINK-4075,PAYLOAD,2023-03-03 14:00:01,15.07221294,0.0001499,53.2153,61.6779,92.8981,25.7211,-0.0031457,-0.00047868,0.0,0 STARLINK-4075,1 52670U 22053Q   23062.58334491 -.00047868  00000-0 -31457-2 0  9999,2 52670  53.2153  61.6779 0001499  92.8981  25.7211 15.07221294  1302,6922.833,95.54,545.735,543.66,0.0
52670.0,STARLINK-4075,PAYLOAD,2023-03-03 22:00:00,15.07172919,0.0001578,53.2154,60.184,104.8697,23.3832,0.0039069,0.00059639,0.0,0 STARLINK-4075,1 52670U 22053Q   23062.91667824  .00059639  00000-0  39069-2 0  9999,2 52670  53.2154  60.1840 0001578 104.8697  23.3832 15.07172919  1304,6922.981,95.543,545.938,543.753,0.0
52670.0,STARLINK-4075,PAYLOAD,2023-03-04 06:00:00,15.0726041,0.0001579,53.2153,58.6929,94.5327,43.3494,-0.0070979,-0.0010688,0.0,0 STARLINK-4075,1 52670U 22053Q   23063.25001157 -.00106880  00000-0 -70979-2 0  9996,2 52670  53.2153  58.6929 0001579  94.5327  43.3494 15.07260410 44339,6922.713,95.538,545.671,543.485,0.0
52670.0,STARLINK-4075,PAYLOAD,2023-03-04 14:00:01,15.07175249,0.0001518,53.2149,57.1998,86.5832,60.9535,0.00046013,6.722e-05,0.0,0 STARLINK-4075,1 52670U 22053Q   23063.58334491  .00006722  00000-0  46013-3 0  9997,2 52670  53.2149  57.1998 0001518  86.5832  60.9535 15.07175249  1305,6922.974,95.543,545.889,543.788,0.0
52670.0,STARLINK-4075,PAYLOAD,2023-03-04 22:00:00,15.0717094,0.0001555,53.215,55.7059,95.6151,61.5199,0.0040125,0.00061269,0.0,0 STARLINK-4075,1 52670U 22053Q   23063.91667824  .00061269  00000-0  40125-2 0  9997,2 52670  53.2150  55.7059 0001555  95.6151  61.5199 15.07170940 44432,6922.987,95.543,545.928,543.775,0.0
52670.0,STARLINK-4075,PAYLOAD,2023-03-05 14:00:01,15.07187042,0.0001548,53.2148,52.7217,79.9364,96.4402,0.00037194,5.38e-05,0.0,0 STARLINK-4075,1 52670U 22053Q   23064.58334491  .00005380  00000-0  37194-3 0  9997,2 52670  53.2148  52.7217 0001548  79.9364  96.4402 15.07187042 44531,6922.937,95.542,545.874,543.731,0.0
52670.0,STARLINK-4075,PAYLOAD,2023-03-05 22:00:00,15.07188073,0.0001547,53.215,51.2278,89.352,96.6372,0.0043474,0.00066487,0.0,0 STARLINK-4075,1 52670U 22053Q   23064.91667824  .00066487  00000-0  43474-2 0  9995,2 52670  53.2150  51.2278 0001547  89.3520  96.6372 15.07188073  1304,6922.934,95.542,545.87,543.728,0.0
52670.0,STARLINK-4075,PAYLOAD,2023-03-06 06:00:00,15.07270888,0.0001437,53.2151,49.7368,84.9055,110.7238,-0.0085225,-0.00127933,0.0,0 STARLINK-4075,1 52670U 22053Q   23065.25001157 -.00127933  00000-0 -85225-2 0  9990,2 52670  53.2151  49.7368 0001437  84.9055 110.7238 15.07270888 44637,6922.681,95.537,545.54,543.551,0.0
52670.0,STARLINK-4075,PAYLOAD,2023-03-06 22:00:00,15.07176806,0.0001209,53.2156,46.7496,98.1095,116.7678,0.0040476,0.00061822,0.0,0 STARLINK-4075,1 52670U 22053Q   23065.91667824  .00061822  00000-0  40476-2 0  9993,2 52670  53.2156  46.7496 0001209  98.1095 116.7678 15.07176806 44739,6922.969,95.543,545.671,543.997,0.0
52670.0,STARLINK-4075,PAYLOAD,2023-03-07 09:46:57,15.07222504,0.0001413,53.2165,44.5523,95.3058,264.8095,0.00191,0.00028924,0.0,0 STARLINK-4075,1 52670U 22053Q   23066.40761214  .00028924  00000-0  19100-2 0  9992,2 52670  53.2165  44.5523 0001413  95.3058 264.8095 15.07222504 44815,6922.829,95.54,545.672,543.716,0.0
52670.0,STARLINK-4075,PAYLOAD,2023-03-07 16:08:54,15.07228171,0.0001553,53.2168,43.3649,73.2137,286.9025,0.0013634,0.00020544,0.0,0 STARLINK-4075,1 52670U 22053Q   23066.67285794  .00020544  00000-0  13634-2 0  9991,2 52670  53.2168  43.3649 0001553  73.2137 286.9025 15.07228171 44850,6922.811,95.54,545.752,543.601,0.0
52670.0,STARLINK-4075,PAYLOAD,2023-03-07 22:30:49,15.07340629,0.000133,53.2161,42.1759,70.5881,289.5254,0.0050768,0.00078141,0.0,0 STARLINK-4075,1 52670U 22053Q   23066.93807375  .00078141  00000-0  50768-2 0  9990,2 52670  53.2161  42.1759 0001330  70.5881 289.5254 15.07340629 45320,6922.467,95.532,545.253,543.411,0.0
52670.0,STARLINK-4075,PAYLOAD,2023-03-08 01:41:44,15.07479496,0.0003448,53.2164,41.5821,143.6398,216.4828,0.0085197,0.00132856,0.0,0 STARLINK-4075,1 52670U 22053Q   23067.07065418  .00132856  00000-0  85197-2 0  9998,2 52670  53.2164  41.5821 0003448 143.6398 216.4828 15.07479496 44918,6922.042,95.524,546.294,541.52,0.0
52670.0,STARLINK-4075,PAYLOAD,2023-03-08 11:14:27,15.07826697,0.0001242,53.2164,39.7994,89.9867,270.1267,0.015311,0.00245122,0.0,0 STARLINK-4075,1 52670U 22053Q   23067.46837857  .00245122  00000-0  15311-1 0  9996,2 52670  53.2164  39.7994 0001242  89.9867 270.1267 15.07826697 44970,6920.979,95.502,543.704,541.985,0.0
52670.0,STARLINK-4075,PAYLOAD,2023-03-08 12:49:53,15.07932331,0.0002229,53.2165,39.5022,157.7016,202.4073,0.017527,0.00282963,0.0,0 STARLINK-4075,1 52670U 22053Q   23067.53464459  .00282963  00000-0  17527-1 0  9993,2 52670  53.2165  39.5022 0002229 157.7016 202.4073 15.07932331 44984,6920.656,95.495,544.064,540.979,0.0
52670.0,STARLINK-4075,PAYLOAD,2023-03-08 22:22:26,15.08221472,0.0001954,53.2173,37.7191,55.9331,304.1846,0.012324,0.00198042,0.0,0 STARLINK-4075,1 52670U 22053Q   23067.93225060  .00198042  00000-0  12324-1 0  9994,2 52670  53.2173  37.7191 0001954  55.9331 304.1846 15.08221472 45474,6919.772,95.477,542.989,540.285,0.0
52670.0,STARLINK-4075,PAYLOAD,2023-03-09 01:33:13,15.08405139,0.0001587,53.2173,37.1241,94.4988,265.6185,0.012599,0.00203647,0.0,0 STARLINK-4075,1 52670U 22053Q   23068.06474403  .00203647  00000-0  12599-1 0  9998,2 52670  53.2173  37.1241 0001587  94.4988 265.6185 15.08405139 45068,6919.21,95.465,542.173,539.977,0.0
52670.0,STARLINK-4075,PAYLOAD,2023-03-09 22:00:00,15.08832208,0.000144,53.2173,33.3,114.8571,195.2023,0.0037282,0.00059535,0.0,0 STARLINK-4075,1 52670U 22053Q   23068.91667824  .00059535  00000-0  37282-2 0  9995,2 52670  53.2173  33.3000 0001440 114.8571 195.2023 15.08832208 45185,6917.904,95.438,540.765,538.773,0.0
52670.0,STARLINK-4075,PAYLOAD,2023-03-10 00:00:00,15.08879556,0.0001408,53.2173,32.9265,114.792,288.1559,-0.0022097,-0.00035321,0.0,0 STARLINK-4075,1 52670U 22053Q   23069.00001157 -.00035321  00000-0 -22097-2 0  9994,2 52670  53.2173  32.9265 0001408 114.7920 288.1559 15.08879556  1303,6917.759,95.435,540.599,538.65,0.0
52670.0,STARLINK-4075,PAYLOAD,2023-03-10 06:00:00,15.08869467,0.0001274,53.2172,31.8055,87.7127,233.9414,-0.0063554,-0.0010011,0.0,0 STARLINK-4075,1 52670U 22053Q   23069.25001157 -.00100110  00000-0 -63554-2 0  9993,2 52670  53.2172  31.8055 0001274  87.7127 233.9414 15.08869467 45234,6917.79,95.436,540.537,538.774,0.0
52670.0,STARLINK-4075,PAYLOAD,2023-03-10 22:00:00,15.08829464,0.0001238,53.2173,28.8115,93.9119,250.8718,0.0032872,0.00052402,0.0,0 STARLINK-4075,1 52670U 22053Q   23069.91667824  .00052402  00000-0  32872-2 0  9992,2 52670  53.2173  28.8115 0001238  93.9119 250.8718 15.08829464 45337,6917.913,95.438,540.634,538.921,0.0
52670.0,STARLINK-4075,PAYLOAD,2023-03-11 06:00:00,15.08860144,0.0001271,53.217,27.317,74.4389,281.9482,-0.0039692,-0.0006294,0.0,0 STARLINK-4075,1 52670U 22053Q   23070.25001157 -.00062940  00000-0 -39692-2 0  9999,2 52670  53.2170  27.3170 0001271  74.4389 281.9482 15.08860144 45387,6917.819,95.436,540.563,538.805,0.0
52670.0,STARLINK-4075,PAYLOAD,2023-03-11 14:00:01,15.08818712,0.0001221,53.2168,25.8193,74.2431,293.7992,0.0017966,0.00028404,0.0,0 STARLINK-4075,1 52670U 22053Q   23070.58335648  .00028404  00000-0  17966-2 0  9995,2 52670  53.2168  25.8193 0001221  74.2431 293.7992 15.08818712  1308,6917.945,95.439,540.655,538.966,0.0
52670.0,STARLINK-4075,PAYLOAD,2023-03-11 22:00:00,15.0885129,0.0001179,53.2169,24.323,83.6441,295.9018,0.0017418,0.0002755,0.0,0 STARLINK-4075,1 52670U 22053Q   23070.91667824  .00027550  00000-0  17418-2 0  9999,2 52670  53.2169  24.3230 0001179  83.6441 295.9018 15.08851290 45491,6917.846,95.437,540.526,538.895,0.0
52670.0,STARLINK-4075,PAYLOAD,2023-03-12 05:51:47,15.08853532,0.0001288,53.2171,22.8517,77.6713,282.4423,0.0011103,0.00017433,0.0,0 STARLINK-4075,1 52670U 22053Q   23071.24429716  .00017433  00000-0  11103-2 0  9996,2 52670  53.2171  22.8517 0001288  77.6713 282.4423 15.08853532 45538,6917.839,95.437,540.595,538.813,0.0
